FLOCK 4Q-15             
1 58319U 23174BR  26061.78289583  .00126251  00000+0  16392-2 0  9997
2 58319  97.3925 152.3916 0005299 170.7705 189.3649 15.58379983129394
FLOCK 4Q-2              
1 58320U 23174BS  26061.81008362  .00027286  00000+0  58711-3 0  9997
2 58320  97.3881 148.1027 0007970 160.0327 200.1235 15.44577198129153
FLOCK 4Q-9              
1 58322U 23174BU  26061.76271146  .00028504  00000+0  62047-3 0  9996
2 58322  97.3917 148.0983 0008087 161.0519 199.1032 15.44225036129130
FLOCK 4Q-4              
1 58327U 23174BZ  26061.76259381  .00026491  00000+0  58401-3 0  9990
2 58327  97.3874 147.4791 0007485 178.1069 182.0209 15.43867657129112
FLOCK 4Q-13             
1 58328U 23174CA  26061.74415786  .00030984  00000+0  62439-3 0  9990
2 58328  97.4032 149.8367 0007495 173.1794 186.9559 15.46481836129199
FLOCK 4Q-21             
1 58329U 23174CB  26061.76327626  .00053258  00000+0  74665-3 0  9991
2 58329  97.3942 152.8373 0005792 178.6264 181.5007 15.56584117129411
FLOCK 4BE-18            
1 60480U 24149N   26061.78143910  .00022941  00000+0  61602-3 0  9991
2 60480  97.3791 144.6731 0002998 270.2606  89.8296 15.37936270 85933
FLOCK 4BE-7             
1 60481U 24149P   26061.78698368  .00018347  00000+0  52524-3 0  9992
2 60481  97.3822 144.2841 0001955 267.2430  92.8590 15.35990256 85898
FLOCK 4BE-26            
1 60484U 24149S   26061.75450313  .00097548  00000+0  22086-2 0  9997
2 60484  97.3777 144.5142 0005658 260.8103  99.2505 15.42741649 85926
FLOCK 4BE-36            
1 60486U 24149U   26061.74937000  .00023670  00000+0  61819-3 0  9994
2 60486  97.3801 145.1771 0002719 285.5509  74.5436 15.38787810 85968
FLOCK 4BE-25            
1 60487U 24149V   26061.79966634  .00018367  00000+0  53028-3 0  9995
2 60487  97.3857 144.4455 0001123 251.9821 108.1301 15.35725738 85898
FLOCK 4BE-31            
1 60488U 24149W   26061.78685949  .00027041  00000+0  68808-3 0  9993
2 60488  97.3857 145.8240 0001620 279.4063  80.6999 15.39562808 85989
FLOCK 4BE-20            
1 60489U 24149X   26061.77464412  .00016462  00000+0  48649-3 0  9999
2 60489  97.3764 143.5656 0002331 276.9815  83.1163 15.35013054 85879
FLOCK 4BE-23            
1 60490U 24149Y   26061.73972683  .00016294  00000+0  48708-3 0  9990
2 60490  97.3843 143.8489 0002046 292.8598  67.2429 15.34652525 85851
FLOCK 4BE-15            
1 60491U 24149Z   26061.75634773  .00066503  00000+0  17066-2 0  9998
2 60491  97.3781 144.8736 0002677 339.4903  20.6235 15.39088622 85952
FLOCK 4BE-17            
1 60492U 24149AA  26061.79140557  .00019772  00000+0  55931-3 0  9995
2 60492  97.3838 144.5630 0001959 267.2889  92.8131 15.36349265 85900
FLOCK 4BE-22            
1 60494U 24149AC  26061.73121838  .00022268  00000+0  60878-3 0  9992
2 60494  97.3794 144.5470 0002642 293.4557  66.6410 15.37386667 85927
